LOGOS_L_00004019-31
1 10930U 25025MA  26075.70053241  .00000000  00000+0  00000-0 0  9998
2 10930  46.0000 259.2000 0000000   0.0000 236.7360 14.09816417    12
LOGOS_L_00004019-32
1 10931U 26632YS  26075.70053241  .00000000  00000+0  00000-0 0  9994
2 10931  46.0000 259.2000 0000000   0.0000 243.9360 14.09816417    13
LOGOS_L_00004019-33
1 10932U 25593UZ  26075.70053241  .00000000  00000+0  00000-0 0  9990
2 10932  46.0000 259.2000 0000000   0.0000 251.1360 14.09816417    15
LOGOS_L_00004019-34
1 10933U 26274BT  26075.70053241  .00000000  00000+0  00000-0 0  9998
2 10933  46.0000 259.2000 0000000   0.0000 258.3360 14.09816417    15
LOGOS_L_00004019-35
1 10934U 26279QY  26075.70053241  .00000000  00000+0  00000-0 0  9994
2 10934  46.0000 259.2000 0000000   0.0000 265.5360 14.09816417    16
LOGOS_L_00004019-36
1 10935U 23973EJ  26075.70053241  .00000000  00000+0  00000-0 0  9993
2 10935  46.0000 259.2000 0000000   0.0000 272.7360 14.09816417    17
LOGOS_L_00004019-37
1 10936U 24621HH  26075.70053241  .00000000  00000+0  00000-0 0  9995
2 10936  46.0000 259.2000 0000000   0.0000 279.9360 14.09816417    17
LOGOS_L_00004019-38
1 10937U 25501RP  26075.70053241  .00000000  00000+0  00000-0 0  9994
2 10937  46.0000 259.2000 0000000   0.0000 287.1360 14.09816417    19
LOGOS_L_00004019-39
1 10938U 24932XS  26075.70053241  .00000000  00000+0  00000-0 0  9992
2 10938  46.0000 259.2000 0000000   0.0000 294.3360 14.09816417    10
LOGOS_L_00004019-40
1 10939U 22566LE  26075.70053241  .00000000  00000+0  00000-0 0  9994
2 10939  46.0000 259.2000 0000000   0.0000 301.5360 14.09816417    12
LOGOS_L_00004019-41
1 10940U 23609MO  26075.70053241  .00000000  00000+0  00000-0 0  9995
2 10940  46.0000 259.2000 0000000   0.0000 308.7360 14.09816417    13
LOGOS_L_00004019-42
1 10941U 26204HV  26075.70053241  .00000000  00000+0  00000-0 0  9990
2 10941  46.0000 259.2000 0000000   0.0000 315.9360 14.09816417    14
LOGOS_L_00004019-43
1 10942U 25347HL  26075.70053241  .00000000  00000+0  00000-0 0  9998
2 10942  46.0000 259.2000 0000000   0.0000 323.1360 14.09816417    16
LOGOS_L_00004019-44
1 10943U 22690RB  26075.70053241  .00000000  00000+0  00000-0 0  9997
2 10943  46.0000 259.2000 0000000   0.0000 330.3360 14.09816417    17
LOGOS_L_00004019-45
1 10944U 24767VN  26075.70053241  .00000000  00000+0  00000-0 0  9995
2 10944  46.0000 259.2000 0000000   0.0000 337.5360 14.09816417    17
LOGOS_L_00004019-46
1 10945U 26144XR  26075.70053241  .00000000  00000+0  00000-0 0  9997
2 10945  46.0000 259.2000 0000000   0.0000 344.7360 14.09816417    18
LOGOS_L_00004019-47
1 10946U 23482TO  26075.70053241  .00000000  00000+0  00000-0 0  9990
2 10946  46.0000 259.2000 0000000   0.0000 351.9360 14.09816417    19
LOGOS_L_00004019-48
1 10947U 23740PU  26075.70053241  .00000000  00000+0  00000-0 0  9998
2 10947  46.0000 259.2000 0000000   0.0000 359.1360 14.09816417    10
LOGOS_L_00004019-49
1 10948U 22006CU  26075.70053241  .00000000  00000+0  00000-0 0  9993
2 10948  46.0000 259.2000 0000000   0.0000   6.3360 14.09816417    12
LOGOS_L_00004019-50
1 10949U 25506FE  26075.70053241  .00000000  00000+0  00000-0 0  9992
2 10949  46.0000 259.2000 0000000   0.0000  13.5360 14.09816417    13
LOGOS_L_00004020-01
1 10950U 25580NS  26075.70053241  .00000000  00000+0  00000-0 0  9996
2 10950  46.0000 273.6000 0000000   0.0000  21.8880 14.09816417    14
LOGOS_L_00004020-02
1 10951U 26458W   26075.70053241  .00000000  00000+0  00000-0 0  9992
2 10951  46.0000 273.6000 0000000   0.0000  29.0880 14.09816417    15
LOGOS_L_00004020-03
1 10952U 23909KM  26075.70053241  .00000000  00000+0  00000-0 0  9991
2 10952  46.0000 273.6000 0000000   0.0000  36.2880 14.09816417    16
LOGOS_L_00004020-04
1 10953U 26736YJ  26075.70053241  .00000000  00000+0  00000-0 0  9993
2 10953  46.0000 273.6000 0000000   0.0000  43.4880 14.09816417    17
LOGOS_L_00004020-05
1 10954U 24326Z   26075.70053241  .00000000  00000+0  00000-0 0  9997
2 10954  46.0000 273.6000 0000000   0.0000  50.6880 14.09816417    18
LOGOS_L_00004020-06
1 10955U 26329OB  26075.70053241  .00000000  00000+0  00000-0 0  9993
2 10955  46.0000 273.6000 0000000   0.0000  57.8880 14.09816417    18
LOGOS_L_00004020-07
1 10956U 26670WJ  26075.70053241  .00000000  00000+0  00000-0 0  9993
2 10956  46.0000 273.6000 0000000   0.0000  65.0880 14.09816417    10
LOGOS_L_00004020-08
1 10957U 25176D   26075.70053241  .00000000  00000+0  00000-0 0  9994
2 10957  46.0000 273.6000 0000000   0.0000  72.2880 14.09816417    11
LOGOS_L_00004020-09
1 10958U 26080UK  26075.70053241  .00000000  00000+0  00000-0 0  9990
2 10958  46.0000 273.6000 0000000   0.0000  79.4880 14.09816417    11
LOGOS_L_00004020-10
1 10959U 25812BK  26075.70053241  .00000000  00000+0  00000-0 0  9993
2 10959  46.0000 273.6000 0000000   0.0000  86.6880 14.09816417    12
LOGOS_L_00004020-11
1 10960U 25273IH  26075.70053241  .00000000  00000+0  00000-0 0  9996
2 10960  46.0000 273.6000 0000000   0.0000  93.8880 14.09816417    14
LOGOS_L_00004020-12
1 10961U 24929OL  26075.70053241  .00000000  00000+0  00000-0 0  9994
2 10961  46.0000 273.6000 0000000   0.0000 101.0880 14.09816417    17
LOGOS_L_00004020-13
1 10962U 24307NC  26075.70053241  .00000000  00000+0  00000-0 0  9995
2 10962  46.0000 273.6000 0000000   0.0000 108.2880 14.09816417    17
LOGOS_L_00004020-14
1 10963U 24186CO  26075.70053241  .00000000  00000+0  00000-0 0  9991
2 10963  46.0000 273.6000 0000000   0.0000 115.4880 14.09816417    18
LOGOS_L_00004020-15
1 10964U 24651OB  26075.70053241  .00000000  00000+0  00000-0 0  9999
2 10964  46.0000 273.6000 0000000   0.0000 122.6880 14.09816417    19
LOGOS_L_00004020-16
1 10965U 25653A   26075.70053241  .00000000  00000+0  00000-0 0  9993
2 10965  46.0000 273.6000 0000000   0.0000 129.8880 14.09816417    19
LOGOS_L_00004020-17
1 10966U 22587UP  26075.70053241  .00000000  00000+0  00000-0 0  9997
2 10966  46.0000 273.6000 0000000   0.0000 137.0880 14.09816417    11
LOGOS_L_00004020-18
1 10967U 25191PX  26075.70053241  .00000000  00000+0  00000-0 0  9992
2 10967  46.0000 273.6000 0000000   0.0000 144.2880 14.09816417    12
LOGOS_L_00004020-19
1 10968U 26557CT  26075.70053241  .00000000  00000+0  00000-0 0  9990
2 10968  46.0000 273.6000 0000000   0.0000 151.4880 14.09816417    13
LOGOS_L_00004020-20
1 10969U 26827UK  26075.70053241  .00000000  00000+0  00000-0 0  9991
2 10969  46.0000 273.6000 0000000   0.0000 158.6880 14.09816417    13
LOGOS_L_00004020-21
1 10970U 24701NQ  26075.70053241  .00000000  00000+0  00000-0 0  9992
2 10970  46.0000 273.6000 0000000   0.0000 165.8880 14.09816417    15
LOGOS_L_00004020-22
1 10971U 24058KV  26075.70053241  .00000000  00000+0  00000-0 0  9998
2 10971  46.0000 273.6000 0000000   0.0000 173.0880 14.09816417    17
LOGOS_L_00004020-23
1 10972U 22518EL  26075.70053241  .00000000  00000+0  00000-0 0  9998
2 10972  46.0000 273.6000 0000000   0.0000 180.2880 14.09816417    18
LOGOS_L_00004020-24
1 10973U 25551IW  26075.70053241  .00000000  00000+0  00000-0 0  9999
2 10973  46.0000 273.6000 0000000   0.0000 187.4880 14.09816417    18
LOGOS_L_00004020-25
1 10974U 26519NP  26075.70053241  .00000000  00000+0  00000-0 0  9995
2 10974  46.0000 273.6000 0000000   0.0000 194.6880 14.09816417    19
LOGOS_L_00004020-26
1 10975U 25999FG  26075.70053241  .00000000  00000+0  00000-0 0  9997
2 10975  46.0000 273.6000 0000000   0.0000 201.8880 14.09816417    11
LOGOS_L_00004020-27
1 10976U 24827UM  26075.70053241  .00000000  00000+0  00000-0 0  9997
2 10976  46.0000 273.6000 0000000   0.0000 209.0880 14.09816417    12
LOGOS_L_00004020-28
1 10977U 22002AF  26075.70053241  .00000000  00000+0  00000-0 0  9991
2 10977  46.0000 273.6000 0000000   0.0000 216.2880 14.09816417    13
LOGOS_L_00004020-29
1 10978U 23475HE  26075.70053241  .00000000  00000+0  00000-0 0  9997
2 10978  46.0000 273.6000 0000000   0.0000 223.4880 14.09816417    14
LOGOS_L_00004020-30
1 10979U 25297LR  26075.70053241  .00000000  00000+0  00000-0 0  9992
2 10979  46.0000 273.6000 0000000   0.0000 230.6880 14.09816417    15
LOGOS_L_00004020-31
1 10980U 25790OU  26075.70053241  .00000000  00000+0  00000-0 0  9992
2 10980  46.0000 273.6000 0000000   0.0000 237.8880 14.09816417    16
LOGOS_L_00004020-32
1 10981U 22441OM  26075.70053241  .00000000  00000+0  00000-0 0  9993
2 10981  46.0000 273.6000 0000000   0.0000 245.0880 14.09816417    18
LOGOS_L_00004020-33
1 10982U 23387TA  26075.70053241  .00000000  00000+0  00000-0 0  9994
2 10982  46.0000 273.6000 0000000   0.0000 252.2880 14.09816417    19
LOGOS_L_00004020-34
1 10983U 26201BC  26075.70053241  .00000000  00000+0  00000-0 0  9993
2 10983  46.0000 273.6000 0000000   0.0000 259.4880 14.09816417    19
LOGOS_L_00004020-35
1 10984U 24614RW  26075.70053241  .00000000  00000+0  00000-0 0  9990
2 10984  46.0000 273.6000 0000000   0.0000 266.6880 14.09816417    10
LOGOS_L_00004020-36
1 10985U 23203MV  26075.70053241  .00000000  00000+0  00000-0 0  9994
2 10985  46.0000 273.6000 0000000   0.0000 273.8880 14.09816417    11
LOGOS_L_00004020-37
1 10986U 24504LQ  26075.70053241  .00000000  00000+0  00000-0 0  9990
2 10986  46.0000 273.6000 0000000   0.0000 281.0880 14.09816417    13
LOGOS_L_00004020-38
1 10987U 26144QB  26075.70053241  .00000000  00000+0  00000-0 0  9993
2 10987  46.0000 273.6000 0000000   0.0000 288.2880 14.09816417    13
LOGOS_L_00004020-39
1 10988U 22976KG  26075.70053241  .00000000  00000+0  00000-0 0  9993
2 10988  46.0000 273.6000 0000000   0.0000 295.4880 14.09816417    14
LOGOS_L_00004020-40
1 10989U 24603IE  26075.70053241  .00000000  00000+0  00000-0 0  9993
2 10989  46.0000 273.6000 0000000   0.0000 302.6880 14.09816417    16
LOGOS_L_00004020-41
1 10990U 23626WA  26075.70053241  .00000000  00000+0  00000-0 0  9999
2 10990  46.0000 273.6000 0000000   0.0000 309.8880 14.09816417    17
LOGOS_L_00004020-42
1 10991U 25314ED  26075.70053241  .00000000  00000+0  00000-0 0  9996
2 10991  46.0000 273.6000 0000000   0.0000 317.0880 14.09816417    19
